[
  {
    "COMMENT": "GENERATED VIA SPACETRACK.ORG API",
    "ORIGINATOR": "18 SPCS",
    "NORAD_CAT_ID": "20436",
    "OBJECT_NAME": "SPOT 2",
    "OBJECT_TYPE": "PAYLOAD",
    "CLASSIFICATION_TYPE": "U",
    "INTLDES": "90005A",
    "EPOCH": "2023-05-16 10:27:44",
    "EPOCH_MICROSECONDS": "726976",
    "MEAN_MOTION": "14.68039646",
    "ECCENTRICITY": "0.0141888",
    "INCLINATION": "98.6639",
    "RA_OF_ASC_NODE": "205.8741",
    "ARG_OF_PERICENTER": "23.2652",
    "MEAN_ANOMALY": "337.4889",
    "EPHEMERIS_TYPE": "0",
    "ELEMENT_SET_NO": "999",
    "REV_AT_EPOCH": "74951",
    "BSTAR": "0.00021763",
    "MEAN_MOTION_DOT": "0.00001389",
    "MEAN_MOTION_DDOT": "0",
    "FILE": "3909472",
    "TLE_LINE0": "0 SPOT 2",
    "TLE_LINE1": "1 20436U 90005A   23136.43593434  .00001389  00000-0  21763-3 0  9992",
    "TLE_LINE2": "2 20436  98.6639 205.8741 0141888  23.2652 337.4889 14.68039646749510",
    "OBJECT_ID": "1990-005A",
    "OBJECT_NUMBER": "20436",
    "SEMIMAJOR_AXIS": "7045.470",
    "PERIOD": "98.090",
    "APOGEE": "767.302",
    "PERIGEE": "567.368",
    "DECAYED": "0"
  },
  {
    "COMMENT": "GENERATED VIA SPACETRACK.ORG API",
    "ORIGINATOR": "18 SPCS",
    "NORAD_CAT_ID": "20436",
    "OBJECT_NAME": "SPOT 2",
    "OBJECT_TYPE": "PAYLOAD",
    "CLASSIFICATION_TYPE": "U",
    "INTLDES": "90005A",
    "EPOCH": "2023-05-16 15:22:11",
    "EPOCH_MICROSECONDS": "59392",
    "MEAN_MOTION": "14.68040241",
    "ECCENTRICITY": "0.0141874",
    "INCLINATION": "98.6638",
    "RA_OF_ASC_NODE": "206.0905",
    "ARG_OF_PERICENTER": "22.6289",
    "MEAN_ANOMALY": "338.1087",
    "EPHEMERIS_TYPE": "0",
    "ELEMENT_SET_NO": "999",
    "REV_AT_EPOCH": "74954",
    "BSTAR": "0.00021341",
    "MEAN_MOTION_DOT": "0.00001361",
    "MEAN_MOTION_DDOT": "0",
    "FILE": "3909742",
    "TLE_LINE0": "0 SPOT 2",
    "TLE_LINE1": "1 20436U 90005A   23136.64040578  .00001361  00000-0  21341-3 0  9993",
    "TLE_LINE2": "2 20436  98.6638 206.0905 0141874  22.6289 338.1087 14.68040241749542",
    "OBJECT_ID": "1990-005A",
    "OBJECT_NUMBER": "20436",
    "SEMIMAJOR_AXIS": "7045.468",
    "PERIOD": "98.090",
    "APOGEE": "767.290",
    "PERIGEE": "567.376",
    "DECAYED": "0"
  },
  {
    "COMMENT": "GENERATED VIA SPACETRACK.ORG API",
    "ORIGINATOR": "18 SPCS",
    "NORAD_CAT_ID": "20436",
    "OBJECT_NAME": "SPOT 2",
    "OBJECT_TYPE": "PAYLOAD",
    "CLASSIFICATION_TYPE": "U",
    "INTLDES": "90005A",
    "EPOCH": "2023-05-17 19:10:40",
    "EPOCH_MICROSECONDS": "203552",
    "MEAN_MOTION": "14.68042577",
    "ECCENTRICITY": "0.0141791",
    "INCLINATION": "98.6638",
    "RA_OF_ASC_NODE": "207.317",
    "ARG_OF_PERICENTER": "19.0261",
    "MEAN_ANOMALY": "341.6163",
    "EPHEMERIS_TYPE": "0",
    "ELEMENT_SET_NO": "999",
    "REV_AT_EPOCH": "74973",
    "BSTAR": "0.00017666",
    "MEAN_MOTION_DOT": "0.00001115",
    "MEAN_MOTION_DDOT": "0",
    "FILE": "3910491",
    "TLE_LINE0": "0 SPOT 2",
    "TLE_LINE1": "1 20436U 90005A   23137.79907643  .00001115  00000-0  17666-3 0  9997",
    "TLE_LINE2": "2 20436  98.6638 207.3170 0141791  19.0261 341.6163 14.68042577749737",
    "OBJECT_ID": "1990-005A",
    "OBJECT_NUMBER": "20436",
    "SEMIMAJOR_AXIS": "7045.461",
    "PERIOD": "98.090",
    "APOGEE": "767.224",
    "PERIGEE": "567.428",
    "DECAYED": "0"
  },
  {
    "COMMENT": "GENERATED VIA SPACETRACK.ORG API",
    "ORIGINATOR": "18 SPCS",
    "NORAD_CAT_ID": "20436",
    "OBJECT_NAME": "SPOT 2",
    "OBJECT_TYPE": "PAYLOAD",
    "CLASSIFICATION_TYPE": "U",
    "INTLDES": "90005A",
    "EPOCH": "2023-05-17 22:26:57",
    "EPOCH_MICROSECONDS": "729696",
    "MEAN_MOTION": "14.680429",
    "ECCENTRICITY": "0.0141774",
    "INCLINATION": "98.6638",
    "RA_OF_ASC_NODE": "207.4614",
    "ARG_OF_PERICENTER": "18.6001",
    "MEAN_ANOMALY": "342.0309",
    "EPHEMERIS_TYPE": "0",
    "ELEMENT_SET_NO": "999",
    "REV_AT_EPOCH": "74973",
    "BSTAR": "0.00017432",
    "MEAN_MOTION_DOT": "0.000011",
    "MEAN_MOTION_DDOT": "0",
    "FILE": "3910633",
    "TLE_LINE0": "0 SPOT 2",
    "TLE_LINE1": "1 20436U 90005A   23137.93539039  .00001100  00000-0  17432-3 0  9998",
    "TLE_LINE2": "2 20436  98.6638 207.4614 0141774  18.6001 342.0309 14.68042900749736",
    "OBJECT_ID": "1990-005A",
    "OBJECT_NUMBER": "20436",
    "SEMIMAJOR_AXIS": "7045.460",
    "PERIOD": "98.090",
    "APOGEE": "767.211",
    "PERIGEE": "567.439",
    "DECAYED": "0"
  },
  {
    "COMMENT": "GENERATED VIA SPACETRACK.ORG API",
    "ORIGINATOR": "18 SPCS",
    "NORAD_CAT_ID": "20436",
    "OBJECT_NAME": "SPOT 2",
    "OBJECT_TYPE": "PAYLOAD",
    "CLASSIFICATION_TYPE": "U",
    "INTLDES": "90005A",
    "EPOCH": "2023-05-18 04:59:32",
    "EPOCH_MICROSECONDS": "777664",
    "MEAN_MOTION": "14.68043328",
    "ECCENTRICITY": "0.0141751",
    "INCLINATION": "98.6638",
    "RA_OF_ASC_NODE": "207.7499",
    "ARG_OF_PERICENTER": "17.7483",
    "MEAN_ANOMALY": "342.8599",
    "EPHEMERIS_TYPE": "0",
    "ELEMENT_SET_NO": "999",
    "REV_AT_EPOCH": "74977",
    "BSTAR": "0.00016306",
    "MEAN_MOTION_DOT": "0.00001024",
    "MEAN_MOTION_DDOT": "0",
    "FILE": "3911221",
    "TLE_LINE0": "0 SPOT 2",
    "TLE_LINE1": "1 20436U 90005A   23138.20801826  .00001024  00000-0  16306-3 0  9999",
    "TLE_LINE2": "2 20436  98.6638 207.7499 0141751  17.7483 342.8599 14.68043328749777",
    "OBJECT_ID": "1990-005A",
    "OBJECT_NUMBER": "20436",
    "SEMIMAJOR_AXIS": "7045.458",
    "PERIOD": "98.090",
    "APOGEE": "767.194",
    "PERIGEE": "567.453",
    "DECAYED": "0"
  },
  {
    "COMMENT": "GENERATED VIA SPACETRACK.ORG API",
    "ORIGINATOR": "18 SPCS",
    "NORAD_CAT_ID": "20436",
    "OBJECT_NAME": "SPOT 2",
    "OBJECT_TYPE": "PAYLOAD",
    "CLASSIFICATION_TYPE": "U",
    "INTLDES": "90005A",
    "EPOCH": "2023-05-19 03:53:35",
    "EPOCH_MICROSECONDS": "384640",
    "MEAN_MOTION": "14.68045764",
    "ECCENTRICITY": "0.0141689",
    "INCLINATION": "98.6637",
    "RA_OF_ASC_NODE": "208.7601",
    "ARG_OF_PERICENTER": "14.7827",
    "MEAN_ANOMALY": "345.7454",
    "EPHEMERIS_TYPE": "0",
    "ELEMENT_SET_NO": "999",
    "REV_AT_EPOCH": "74993",
    "BSTAR": "0.00016011",
    "MEAN_MOTION_DOT": "0.00001004",
    "MEAN_MOTION_DDOT": "0",
    "FILE": "3911616",
    "TLE_LINE0": "0 SPOT 2",
    "TLE_LINE1": "1 20436U 90005A   23139.16221510  .00001004  00000-0  16011-3 0  9992",
    "TLE_LINE2": "2 20436  98.6637 208.7601 0141689  14.7827 345.7454 14.68045764749937",
    "OBJECT_ID": "1990-005A",
    "OBJECT_NUMBER": "20436",
    "SEMIMAJOR_AXIS": "7045.451",
    "PERIOD": "98.090",
    "APOGEE": "767.142",
    "PERIGEE": "567.489",
    "DECAYED": "0"
  },
  {
    "COMMENT": "GENERATED VIA SPACETRACK.ORG API",
    "ORIGINATOR": "18 SPCS",
    "NORAD_CAT_ID": "20436",
    "OBJECT_NAME": "SPOT 2",
    "OBJECT_TYPE": "PAYLOAD",
    "CLASSIFICATION_TYPE": "U",
    "INTLDES": "90005A",
    "EPOCH": "2023-05-19 21:53:11",
    "EPOCH_MICROSECONDS": "609088",
    "MEAN_MOTION": "14.68047498",
    "ECCENTRICITY": "0.0141638",
    "INCLINATION": "98.6638",
    "RA_OF_ASC_NODE": "209.5537",
    "ARG_OF_PERICENTER": "12.4475",
    "MEAN_ANOMALY": "348.0167",
    "EPHEMERIS_TYPE": "0",
    "ELEMENT_SET_NO": "999",
    "REV_AT_EPOCH": "75002",
    "BSTAR": "0.00015555",
    "MEAN_MOTION_DOT": "0.00000974",
    "MEAN_MOTION_DDOT": "0",
    "FILE": "3912278",
    "TLE_LINE0": "0 SPOT 2",
    "TLE_LINE1": "1 20436U 90005A   23139.91193992  .00000974  00000-0  15555-3 0  9994",
    "TLE_LINE2": "2 20436  98.6638 209.5537 0141638  12.4475 348.0167 14.68047498750028",
    "OBJECT_ID": "1990-005A",
    "OBJECT_NUMBER": "20436",
    "SEMIMAJOR_AXIS": "7045.445",
    "PERIOD": "98.089",
    "APOGEE": "767.100",
    "PERIGEE": "567.520",
    "DECAYED": "0"
  },
  {
    "COMMENT": "GENERATED VIA SPACETRACK.ORG API",
    "ORIGINATOR": "18 SPCS",
    "NORAD_CAT_ID": "20436",
    "OBJECT_NAME": "SPOT 2",
    "OBJECT_TYPE": "PAYLOAD",
    "CLASSIFICATION_TYPE": "U",
    "INTLDES": "90005A",
    "EPOCH": "2023-05-20 04:25:46",
    "EPOCH_MICROSECONDS": "552512",
    "MEAN_MOTION": "14.6804919",
    "ECCENTRICITY": "0.0141622",
    "INCLINATION": "98.6637",
    "RA_OF_ASC_NODE": "209.8423",
    "ARG_OF_PERICENTER": "11.5981",
    "MEAN_ANOMALY": "348.8427",
    "EPHEMERIS_TYPE": "0",
    "ELEMENT_SET_NO": "999",
    "REV_AT_EPOCH": "75008",
    "BSTAR": "0.00018117",
    "MEAN_MOTION_DOT": "0.00001145",
    "MEAN_MOTION_DDOT": "0",
    "FILE": "3912552",
    "TLE_LINE0": "0 SPOT 2",
    "TLE_LINE1": "1 20436U 90005A   23140.18456658  .00001145  00000-0  18117-3 0  9994",
    "TLE_LINE2": "2 20436  98.6637 209.8423 0141622  11.5981 348.8427 14.68049190750083",
    "OBJECT_ID": "1990-005A",
    "OBJECT_NUMBER": "20436",
    "SEMIMAJOR_AXIS": "7045.440",
    "PERIOD": "98.089",
    "APOGEE": "767.084",
    "PERIGEE": "567.526",
    "DECAYED": "0"
  },
  {
    "COMMENT": "GENERATED VIA SPACETRACK.ORG API",
    "ORIGINATOR": "18 SPCS",
    "NORAD_CAT_ID": "20436",
    "OBJECT_NAME": "SPOT 2",
    "OBJECT_TYPE": "PAYLOAD",
    "CLASSIFICATION_TYPE": "U",
    "INTLDES": "90005A",
    "EPOCH": "2023-05-20 19:09:05",
    "EPOCH_MICROSECONDS": "117760",
    "MEAN_MOTION": "14.68051464",
    "ECCENTRICITY": "0.0141581",
    "INCLINATION": "98.6636",
    "RA_OF_ASC_NODE": "210.4917",
    "ARG_OF_PERICENTER": "9.6916",
    "MEAN_ANOMALY": "350.6966",
    "EPHEMERIS_TYPE": "0",
    "ELEMENT_SET_NO": "999",
    "REV_AT_EPOCH": "75015",
    "BSTAR": "0.00019515",
    "MEAN_MOTION_DOT": "0.00001238",
    "MEAN_MOTION_DDOT": "0",
    "FILE": "3913175",
    "TLE_LINE0": "0 SPOT 2",
    "TLE_LINE1": "1 20436U 90005A   23140.79797590  .00001238  00000-0  19515-3 0  9990",
    "TLE_LINE2": "2 20436  98.6636 210.4917 0141581   9.6916 350.6966 14.68051464750152",
    "OBJECT_ID": "1990-005A",
    "OBJECT_NUMBER": "20436",
    "SEMIMAJOR_AXIS": "7045.432",
    "PERIOD": "98.089",
    "APOGEE": "767.047",
    "PERIGEE": "567.547",
    "DECAYED": "0"
  }
]